OBJECT_NAME,OBJECT_ID,EPOCH,MEAN_MOTION,ECCENTRICITY,INCLINATION,RA_OF_ASC_NODE,ARG_OF_PERICENTER,MEAN_ANOMALY,EPHEMERIS_TYPE,CLASSIFICATION_TYPE,NORAD_CAT_ID,ELEMENT_SET_NO,REV_AT_EPOCH,BSTAR,MEAN_MOTION_DOT,MEAN_MOTION_DDOT
STARLINK-37507,2026-097X,2026-06-27T01:43:27.058080,15.33446473,.0001319,97.2839,13.4847,98.9181,261.2211,0,U,68916,999,900,.54522E-3,.17568E-3,0
STARLINK-37542,2026-097Y,2026-06-27T01:39:32.374080,15.33440799,.0001511,97.2838,13.4873,90.5453,269.5962,0,U,68917,999,900,.55232E-3,.17796E-3,0
STARLINK-37529,2026-097Z,2026-06-27T03:01:45.372576,15.33441081,.00012,97.2849,13.5619,104.0386,256.0990,0,U,68918,999,901,.2783E-3,.8919E-4,0
KUIPER-00370,2026-098A,2026-06-26T23:23:59.429760,15.28225562,.0013675,51.8748,22.5336,192.2326,167.8327,0,U,68919,999,882,.55185E-3,.15108E-3,0
KUIPER-00380,2026-098B,2026-06-26T22:37:27.502752,15.30390316,.0007518,51.8756,21.6063,187.6159,172.4712,0,U,68920,999,883,.5823E-3,.17053E-3,0
KUIPER-00386,2026-098C,2026-06-26T23:10:39.032256,15.36405311,.0002832,51.8745,20.2884,222.5633,137.5134,0,U,68921,999,885,.12269E-2,.44118E-3,0
KUIPER-00388,2026-098D,2026-06-27T04:00:03.000096,15.23521287,.0020429,51.8764,21.9323,177.6352,1.2448,0,U,68922,999,558,-.79937E-1,-.175835E-1,0
KUIPER-00405,2026-098E,2026-06-27T04:00:03.000096,15.28231696,.0012521,51.8761,21.1422,190.3712,27.8277,0,U,68923,999,202,-.59927E-1,-.1511686E-1,0
KUIPER-00408,2026-098F,2026-06-27T04:00:03.000096,15.27042424,.0014996,51.8763,21.7065,192.9003,108.7224,0,U,68924,999,492,-.5194E-3,-.14354E-3,0
KUIPER-00409,2026-098G,2026-06-26T23:34:01.248096,15.31710215,.0006463,51.8753,21.1295,195.1540,164.9251,0,U,68925,999,884,.10776E-2,.33279E-3,0
KUIPER-00410,2026-098H,2026-06-26T23:26:58.733088,15.27151841,.001408,51.8764,22.5551,189.1686,170.9041,0,U,68926,999,882,.50573E-3,.13362E-3,0
KUIPER-00412,2026-098J,2026-06-26T22:32:47.857056,15.37217505,.0002265,51.8793,20.1452,248.4044,111.6702,0,U,68927,999,885,.69213E-3,.25318E-3,0
KUIPER-00413,2026-098K,2026-06-27T04:00:03.000096,15.19834275,.002376,51.8791,22.0769,198.5559,256.8015,0,U,68928,999,513,-.40182E-3,-.912E-4,0
KUIPER-00414,2026-098L,2026-06-27T04:00:03.000096,14.80834088,.0013789,51.8981,26.6383,181.7360,77.6190,0,U,68929,999,412,-.59487E-2,-.46324E-3,0
KUIPER-00415,2026-098M,2026-06-26T19:36:55.380960,15.30723441,.00105337,51.8796,22.2870,171.9586,188.1568,0,U,68930,999,881,.68021134E-3,.20215E-3,0
KUIPER-00416,2026-098N,2026-06-26T22:21:46.109952,15.37258236,.0000812,51.8759,20.0780,227.3476,132.7442,0,U,68931,999,885,.67169E-3,.24589E-3,0
KUIPER-00420,2026-098P,2026-06-26T23:15:46.889280,15.36131613,.0003263,51.8780,20.3312,217.7314,142.3444,0,U,68932,999,885,.58322E-3,.2052E-3,0
KUIPER-00421,2026-098Q,2026-06-26T23:41:04.900128,15.31041232,.0008093,51.8782,21.1756,165.7396,194.3818,0,U,68933,999,884,.87326E-3,.26323E-3,0
KUIPER-00425,2026-098R,2026-06-26T23:32:37.225824,15.27032253,.0015107,51.8771,22.5893,192.4951,167.5658,0,U,68934,999,882,.97412E-3,.26027E-3,0
KUIPER-00430,2026-098S,2026-06-26T20:26:36.609504,15.27676849,.00208949,51.8774,23.2271,186.9830,173.0865,0,U,68935,999,880,.10694793E-2,.29282E-3,0
KUIPER-00431,2026-098T,2026-06-27T04:00:03.000096,15.19835933,.001579,51.8780,22.0300,174.8924,322.5857,0,U,68936,999,583,-.63195E-2,-.135597E-2,0
KUIPER-00432,2026-098U,2026-06-26T23:46:09.383232,15.28842359,.0013084,51.8739,21.9123,184.6622,175.4241,0,U,68937,999,883,.50188E-3,.13969E-3,0
KUIPER-00434,2026-098V,2026-06-27T04:00:03.000096,15.28954629,.0005574,51.8773,20.1290,169.1493,190.9138,0,U,68938,999,449,-.32946E-1,-.866063E-2,0
KUIPER-00436,2026-098W,2026-06-27T04:00:03.000096,15.29849739,.0009158,51.8762,20.6164,188.4100,287.3844,0,U,68939,999,229,-.10345E-3,-.34E-4,0
KUIPER-00438,2026-098X,2026-06-26T23:15:33.827328,15.31721253,.0006116,51.8763,21.0479,201.7517,158.3209,0,U,68940,999,884,.18845E-3,.5495E-4,0
KUIPER-00439,2026-098Y,2026-06-26T23:49:48.720000,15.32407218,.0006023,51.8770,21.2147,191.5892,168.4955,0,U,68941,999,884,.54396E-3,.1695E-3,0
KUIPER-00440,2026-098Z,2026-06-26T23:04:40.097280,15.32107559,.000363,51.8812,21.0194,205.2241,154.8567,0,U,68942,999,884,.19073E-3,.5636E-4,0
KUIPER-00442,2026-098AA,2026-06-26T22:00:01.998720,15.34390767,.000507,51.8800,21.0826,179.5923,9.0647,0,U,68943,999,366,.93508E-3,.31377E-3,0
KUIPER-00446,2026-098AB,2026-06-26T22:46:02.981568,15.33845098,.0005228,51.8759,20.9146,182.7461,177.3496,0,U,68944,999,884,.57358E-3,.18737E-3,0
KUIPER-00451,2026-098AC,2026-06-27T04:00:03.000096,15.18348046,.0011078,51.8807,21.9552,177.0525,347.9017,0,U,68945,999,435,-.60091E-1,-.115542E-1,0
