STARLINK-37507          
1 68916U 26097X   26178.07184095  .00017568  00000+0  54522-3 0  9999
2 68916  97.2839  13.4847 0001319  98.9181 261.2211 15.33446473  9001
STARLINK-37542          
1 68917U 26097Y   26178.06912470  .00017796  00000+0  55232-3 0  9997
2 68917  97.2838  13.4873 0001511  90.5453 269.5962 15.33440799  9003
STARLINK-37529          
1 68918U 26097Z   26178.12621959  .00008919  00000+0  27830-3 0  9994
2 68918  97.2849  13.5619 0001200 104.0386 256.0990 15.33441081  9014
KUIPER-00370            
1 68919U 26098A   26177.97499340  .00015108  00000+0  55185-3 0  9997
2 68919  51.8748  22.5336 0013675 192.2326 167.8327 15.28225562  8826
KUIPER-00380            
1 68920U 26098B   26177.94267943  .00017053  00000+0  58230-3 0  9993
2 68920  51.8756  21.6063 0007518 187.6159 172.4712 15.30390316  8839
KUIPER-00386            
1 68921U 26098C   26177.96572954  .00044118  00000+0  12269-2 0  9990
2 68921  51.8745  20.2884 0002832 222.5633 137.5134 15.36405311  8854
KUIPER-00388            
1 68922U 26098D   26178.16670139 -.01758350  00000+0 -79937-1 0  9995
2 68922  51.8764  21.9323 0020429 177.6352   1.2448 15.23521287  5581
KUIPER-00405            
1 68923U 26098E   26178.16670139 -.01511686  00000+0 -59927-1 0  9992
2 68923  51.8761  21.1422 0012521 190.3712  27.8277 15.28231696  2024
KUIPER-00408            
1 68924U 26098F   26178.16670139 -.00014354  00000+0 -51940-3 0  9991
2 68924  51.8763  21.7065 0014996 192.9003 108.7224 15.27042424  4925
KUIPER-00409            
1 68925U 26098G   26177.98195889  .00033279  00000+0  10776-2 0  9991
2 68925  51.8753  21.1295 0006463 195.1540 164.9251 15.31710215  8849
KUIPER-00410            
1 68926U 26098H   26177.97706867  .00013362  00000+0  50573-3 0  9996
2 68926  51.8764  22.5551 0014080 189.1686 170.9041 15.27151841  8821
KUIPER-00412            
1 68927U 26098J   26177.93944279  .00025318  00000+0  69213-3 0  9999
2 68927  51.8793  20.1452 0002265 248.4044 111.6702 15.37217505  8857
KUIPER-00413            
1 68928U 26098K   26178.16670139 -.00009120  00000+0 -40182-3 0  9996
2 68928  51.8791  22.0769 0023760 198.5559 256.8015 15.19834275  5133
KUIPER-00414            
1 68929U 26098L   26178.16670139 -.00046324  00000+0 -59487-2 0  9991
2 68929  51.8981  26.6383 0013789 181.7360  77.6190 14.80834088  4121
KUIPER-00415            
1 68930U 26098M   26177.81730765  .00020215  00000+0  68021-3 0  9990
2 68930  51.8796  22.2870 0010533 171.9586 188.1568 15.30723441  8818
KUIPER-00416            
1 68931U 26098N   26177.93178368  .00024589  00000+0  67169-3 0  9999
2 68931  51.8759  20.0780 0000812 227.3476 132.7442 15.37258236  8859
KUIPER-00420            
1 68932U 26098P   26177.96929270  .00020520  00000+0  58322-3 0  9991
2 68932  51.8780  20.3312 0003263 217.7314 142.3444 15.36131613  8852
KUIPER-00421            
1 68933U 26098Q   26177.98686227  .00026323  00000+0  87326-3 0  9999
2 68933  51.8782  21.1756 0008093 165.7396 194.3818 15.31041232  8847
KUIPER-00425            
1 68934U 26098R   26177.98098641  .00026027  00000+0  97412-3 0  9995
2 68934  51.8771  22.5893 0015107 192.4951 167.5658 15.27032253  8821
KUIPER-00430            
1 68935U 26098S   26177.85181261  .00029282  00000+0  10695-2 0  9996
2 68935  51.8774  23.2271 0020894 186.9830 173.0865 15.27676849  8801
KUIPER-00431            
1 68936U 26098T   26178.16670139 -.00135597  00000+0 -63195-2 0  9991
2 68936  51.8780  22.0300 0015790 174.8924 322.5857 15.19835933  5832
KUIPER-00432            
1 68937U 26098U   26177.99038638  .00013969  00000+0  50188-3 0  9999
2 68937  51.8739  21.9123 0013084 184.6622 175.4241 15.28842359  8831
KUIPER-00434            
1 68938U 26098V   26178.16670139 -.00866063  00000+0 -32946-1 0  9991
2 68938  51.8773  20.1290 0005574 169.1493 190.9138 15.28954629  4494
KUIPER-00436            
1 68939U 26098W   26178.16670139 -.00003400  00000+0 -10345-3 0  9991
2 68939  51.8762  20.6164 0009158 188.4100 287.3844 15.29849739  2296
KUIPER-00438            
1 68940U 26098X   26177.96914152  .00005495  00000+0  18845-3 0  9993
2 68940  51.8763  21.0479 0006116 201.7517 158.3209 15.31721253  8847
KUIPER-00439            
1 68941U 26098Y   26177.99292500  .00016950  00000+0  54396-3 0  9992
2 68941  51.8770  21.2147 0006023 191.5892 168.4955 15.32407218  8842
KUIPER-00440            
1 68942U 26098Z   26177.96157520  .00005636  00000+0  19073-3 0  9994
2 68942  51.8812  21.0194 0003630 205.2241 154.8567 15.32107559  8845
KUIPER-00442            
1 68943U 26098AA  26177.91668980  .00031377  00000+0  93508-3 0  9993
2 68943  51.8800  21.0826 0005070 179.5923   9.0647 15.34390767  3667
KUIPER-00446            
1 68944U 26098AB  26177.94864562  .00018737  00000+0  57358-3 0  9999
2 68944  51.8759  20.9146 0005228 182.7461 177.3496 15.33845098  8849
KUIPER-00451            
1 68945U 26098AC  26178.16670139 -.01155420  00000+0 -60091-1 0  9990
2 68945  51.8807  21.9552 0011078 177.0525 347.9017 15.18348046  4354
